ONEWEB-0575             
1 56064U 23043U   24060.91013300 -.00000053  00000+0 -17166-3 0  9995
2 56064  87.9081  35.5978 0002390  95.2608 264.8796 13.16594194 48666
ONEWEB-0576             
1 56065U 23043V   24060.89113397 -.00000051  00000+0 -16818-3 0  9991
2 56065  87.9078  35.6013 0001910  99.0977 261.0370 13.16591577 49561
ONEWEB-0577             
1 56066U 23043W   24060.89747479 -.00000015  00000+0 -73001-4 0  9994
2 56066  87.9080  35.5988 0002689  96.9428 263.2009 13.16594425 48686
ONEWEB-0578             
1 56067U 23043X   24060.91723390  .00000067  00000+0  13116-3 0  9999
2 56067  87.9223  50.8161 0001819  90.9319 269.2023 13.21824996 48403
ONEWEB-0579             
1 56068U 23043Y   24060.90776061  .00000079  00000+0  15859-3 0  9991
2 56068  87.9221  50.8190 0002173  76.3873 283.7503 13.21827060 47500
ONEWEB-0581             
1 56069U 23043Z   24060.90380787 -.00000112  00000+0 -32785-3 0  9995
2 56069  87.9078  35.6273 0002533  86.4157 273.7264 13.16593874 48658
ONEWEB-0609             
1 56070U 23043AA  24060.95594285 -.00000062  00000+0 -20006-3 0  9999
2 56070  87.8951  66.0438 0001847  86.6903 273.4438 13.15546869 46220
